{"type": "FeatureCollection", "features": [ {"type": "Feature", "properties": {"norad_id": 66363, "name": "STARLINK-35806", "group": "last-30-days", "lat": -50.88622356736751, "lon": -101.22618181206094, "alt_km": 371.3028132697882, "timestamp": "2025-12-02T10:50:46.051122+00:00", "meta": {"OBJECT_NAME": "STARLINK-35806", "OBJECT_ID": "2025-254R", "EPOCH": "2025-12-02T04:00:03.998880", "MEAN_MOTION": 15.68908759, "ECCENTRICITY": 0.0001331, "INCLINATION": 53.1591, "RA_OF_ASC_NODE": 327.415, "ARG_OF_PERICENTER": 86.3472, "MEAN_ANOMALY": 26.6549, "EPHEMERIS_TYPE": 0, "CLASSIFICATION_TYPE": "U", "NORAD_CAT_ID": 66363, "ELEMENT_SET_NO": 999, "REV_AT_EPOCH": 519, "BSTAR": -0.019511, "MEAN_MOTION_DOT": -0.02014135, "MEAN_MOTION_DDOT": 0}, "tle": {"line1": "1 66363U 25254R   25336.16671295 -.02014135  00000+0 -19511-1 0  9993", "line2": "2 66363  53.1591 327.4150 0001331  86.3472  26.6549 15.68908759  5195"}}, "geometry": {"type": "Point", "coordinates": [-101.22618181206094, -50.88622356736751]}}, {"type": "Feature", "properties": {"norad_id": 66364, "name": "STARLINK-35797", "group": "last-30-days", "lat": -49.56489112667505, "lon": -95.62174839173557, "alt_km": 371.1277296172566, "timestamp": "2025-12-02T10:50:46.051134+00:00", "meta": {"OBJECT_NAME": "STARLINK-35797", "OBJECT_ID": "2025-254S", "EPOCH": "2025-12-02T04:00:03.998880", "MEAN_MOTION": 15.68911132, "ECCENTRICITY": 0.0001174, "INCLINATION": 53.1593, "RA_OF_ASC_NODE": 327.4069, "ARG_OF_PERICENTER": 84.074, "MEAN_ANOMALY": 32.7591, "EPHEMERIS_TYPE": 0, "CLASSIFICATION_TYPE": "U", "NORAD_CAT_ID": 66364, "ELEMENT_SET_NO": 999, "REV_AT_EPOCH": 522, "BSTAR": -0.019526, "MEAN_MOTION_DOT": -0.02015561, "MEAN_MOTION_DDOT": 0}, "tle": {"line1": "1 66364U 25254S   25336.16671295 -.02015561  00000+0 -19526-1 0  9994", "line2": "2 66364  53.1593 327.4069 0001174  84.0740  32.7591 15.68911132  5223"}}, "geometry": {"type": "Point", "coordinates": [-95.62174839173557, -49.56489112667505]}}, {"type": "Feature", "properties": {"norad_id": 66365, "name": "STARLINK-35827", "group": "last-30-days", "lat": -47.98511333982073, "lon": -90.33411372168352, "alt_km": 371.15809946922855, "timestamp": "2025-12-02T10:50:46.051144+00:00", "meta": {"OBJECT_NAME": "STARLINK-35827", "OBJECT_ID": "2025-254T", "EPOCH": "2025-12-02T04:00:03.998880", "MEAN_MOTION": 15.68908289, "ECCENTRICITY": 0.0001271, "INCLINATION": 53.1592, "RA_OF_ASC_NODE": 327.3996, "ARG_OF_PERICENTER": 89.4328, "MEAN_ANOMALY": 31.2398, "EPHEMERIS_TYPE": 0, "CLASSIFICATION_TYPE": "U", "NORAD_CAT_ID": 66365, "ELEMENT_SET_NO": 999, "REV_AT_EPOCH": 519, "BSTAR": -0.019535, "MEAN_MOTION_DOT": -0.020162, "MEAN_MOTION_DDOT": 0}, "tle": {"line1": "1 66365U 25254T   25336.16671295 -.02016200  00000+0 -19535-1 0  9996", "line2": "2 66365  53.1592 327.3996 0001271  89.4328  31.2398 15.68908289  5194"}}, "geometry": {"type": "Point", "coordinates": [-90.33411372168352, -47.98511333982073]}}, {"type": "Feature", "properties": {"norad_id": 66366, "name": "STARLINK-35845", "group": "last-30-days", "lat": -48.80595018213565, "lon": -92.93757774905656, "alt_km": 371.26996783716095, "timestamp": "2025-12-02T10:50:46.051154+00:00", "meta": {"OBJECT_NAME": "STARLINK-35845", "OBJECT_ID": "2025-254U", "EPOCH": "2025-12-02T04:00:03.998880", "MEAN_MOTION": 15.6890714, "ECCENTRICITY": 0.0001382, "INCLINATION": 53.1596, "RA_OF_ASC_NODE": 327.4028, "ARG_OF_PERICENTER": 90.7134, "MEAN_ANOMALY": 28.0399, "EPHEMERIS_TYPE": 0, "CLASSIFICATION_TYPE": "U", "NORAD_CAT_ID": 66366, "ELEMENT_SET_NO": 999, "REV_AT_EPOCH": 522, "BSTAR": -0.019497, "MEAN_MOTION_DOT": -0.02012796, "MEAN_MOTION_DDOT": 0}, "tle": {"line1": "1 66366U 25254U   25336.16671295 -.02012796  00000+0 -19497-1 0  9990", "line2": "2 66366  53.1596 327.4028 0001382  90.7134  28.0399 15.68907140  5223"}}, "geometry": {"type": "Point", "coordinates": [-92.93757774905656, -48.80595018213565]}}, {"type": "Feature", "properties": {"norad_id": 66367, "name": "STARLINK-35846", "group": "last-30-days", "lat": -47.109770594894314, "lon": -87.82323283188809, "alt_km": 371.10939816149494, "timestamp": "2025-12-02T10:50:46.051164+00:00", "meta": {"OBJECT_NAME": "STARLINK-35846", "OBJECT_ID": "2025-254V", "EPOCH": "2025-12-02T04:00:03.998880", "MEAN_MOTION": 15.68918312, "ECCENTRICITY": 0.0001357, "INCLINATION": 53.1592, "RA_OF_ASC_NODE": 327.3941, "ARG_OF_PERICENTER": 81.6598, "MEAN_ANOMALY": 40.9232, "EPHEMERIS_TYPE": 0, "CLASSIFICATION_TYPE": "U", "NORAD_CAT_ID": 66367, "ELEMENT_SET_NO": 999, "REV_AT_EPOCH": 517, "BSTAR": -0.01965, "MEAN_MOTION_DOT": -0.02027448, "MEAN_MOTION_DDOT": 0}, "tle": {"line1": "1 66367U 25254V   25336.16671295 -.02027448  00000+0 -19650-1 0  9992", "line2": "2 66367  53.1592 327.3941 0001357  81.6598  40.9232 15.68918312  5174"}}, "geometry": {"type": "Point", "coordinates": [-87.82323283188809, -47.109770594894314]}}, {"type": "Feature", "properties": {"norad_id": 66368, "name": "STARLINK-34861", "group": "last-30-days", "lat": -34.143111862675454, "lon": -64.61807005150297, "alt_km": 351.1265970022714, "timestamp": "2025-12-02T10:50:46.051174+00:00", "meta": {"OBJECT_NAME": "STARLINK-34861", "OBJECT_ID": "2025-254W", "EPOCH": "2025-12-02T03:25:01.212960", "MEAN_MOTION": 15.74270001, "ECCENTRICITY": 0.0001284, "INCLINATION": 53.1569, "RA_OF_ASC_NODE": 327.4821, "ARG_OF_PERICENTER": 107.3172, "MEAN_ANOMALY": 252.7989, "EPHEMERIS_TYPE": 0, "CLASSIFICATION_TYPE": "U", "NORAD_CAT_ID": 66368, "ELEMENT_SET_NO": 999, "REV_AT_EPOCH": 401, "BSTAR": 0.0016282, "MEAN_MOTION_DOT": 0.00245773, "MEAN_MOTION_DDOT": 0}, "tle": {"line1": "1 66368U 25254W   25336.14237515  .00245773  00000+0  16282-2 0  9992", "line2": "2 66368  53.1569 327.4821 0001284 107.3172 252.7989 15.74270001  4017"}}, "geometry": {"type": "Point", "coordinates": [-64.61807005150297, -34.143111862675454]}}, {"type": "Feature", "properties": {"norad_id": 66369, "name": "STARLINK-35795", "group": "last-30-days", "lat": -35.462877264640134, "lon": -66.33417937016371, "alt_km": 351.05860813636355, "timestamp": "2025-12-02T10:50:46.051184+00:00", "meta": {"OBJECT_NAME": "STARLINK-35795", "OBJECT_ID": "2025-254X", "EPOCH": "2025-12-02T03:25:30.596736", "MEAN_MOTION": 15.74259806, "ECCENTRICITY": 0.0001214, "INCLINATION": 53.1569, "RA_OF_ASC_NODE": 327.4845, "ARG_OF_PERICENTER": 93.8303, "MEAN_ANOMALY": 266.2856, "EPHEMERIS_TYPE": 0, "CLASSIFICATION_TYPE": "U", "NORAD_CAT_ID": 66369, "ELEMENT_SET_NO": 999, "REV_AT_EPOCH": 401, "BSTAR": 0.0017629, "MEAN_MOTION_DOT": 0.00266703, "MEAN_MOTION_DDOT": 0}, "tle": {"line1": "1 66369U 25254X   25336.14271524  .00266703  00000+0  17629-2 0  9993", "line2": "2 66369  53.1569 327.4845 0001214  93.8303 266.2856 15.74259806  4015"}}, "geometry": {"type": "Point", "coordinates": [-66.33417937016371, -35.462877264640134]}}, {"type": "Feature", "properties": {"norad_id": 66370, "name": "STARLINK-35824", "group": "last-30-days", "lat": -32.81585517516496, "lon": -62.973825663299884, "alt_km": 350.8917663045795, "timestamp": "2025-12-02T10:50:46.051194+00:00", "meta": {"OBJECT_NAME": "STARLINK-35824", "OBJECT_ID": "2025-254Y", "EPOCH": "2025-12-02T03:24:32.097888", "MEAN_MOTION": 15.74273613, "ECCENTRICITY": 0.0001246, "INCLINATION": 53.1569, "RA_OF_ASC_NODE": 327.4803, "ARG_OF_PERICENTER": 94.3401, "MEAN_ANOMALY": 265.7761, "EPHEMERIS_TYPE": 0, "CLASSIFICATION_TYPE": "U", "NORAD_CAT_ID": 66370, "ELEMENT_SET_NO": 999, "REV_AT_EPOCH": 401, "BSTAR": 0.0016386, "MEAN_MOTION_DOT": 0.0024743, "MEAN_MOTION_DDOT": 0}, "tle": {"line1": "1 66370U 25254Y   25336.14203817  .00247430  00000+0  16386-2 0  9990", "line2": "2 66370  53.1569 327.4803 0001246  94.3401 265.7761 15.74273613  4012"}}, "geometry": {"type": "Point", "coordinates": [-62.973825663299884, -32.81585517516496]}}, {"type": "Feature", "properties": {"norad_id": 66371, "name": "STARLINK-35804", "group": "last-30-days", "lat": -30.090236014728998, "lon": -59.81947793330424, "alt_km": 351.07503714707764, "timestamp": "2025-12-02T10:50:46.051203+00:00", "meta": {"OBJECT_NAME": "STARLINK-35804", "OBJECT_ID": "2025-254Z", "EPOCH": "2025-12-02T03:23:33.567072", "MEAN_MOTION": 15.74270041, "ECCENTRICITY": 0.0001522, "INCLINATION": 53.1567, "RA_OF_ASC_NODE": 327.4752, "ARG_OF_PERICENTER": 117.5841, "MEAN_ANOMALY": 242.5333, "EPHEMERIS_TYPE": 0, "CLASSIFICATION_TYPE": "U", "NORAD_CAT_ID": 66371, "ELEMENT_SET_NO": 999, "REV_AT_EPOCH": 401, "BSTAR": 0.0015809, "MEAN_MOTION_DOT": 0.00238403, "MEAN_MOTION_DDOT": 0}, "tle": {"line1": "1 66371U 25254Z   25336.14136073  .00238403  00000+0  15809-2 0  9999", "line2": "2 66371  53.1567 327.4752 0001522 117.5841 242.5333 15.74270041  4017"}}, "geometry": {"type": "Point", "coordinates": [-59.81947793330424, -30.090236014728998]}}, {"type": "Feature", "properties": {"norad_id": 66372, "name": "STARLINK-35821", "group": "last-30-days", "lat": -31.469516693968682, "lon": -61.38049838738674, "alt_km": 350.9451922115268, "timestamp": "2025-12-02T10:50:46.051217+00:00", "meta": {"OBJECT_NAME": "STARLINK-35821", "OBJECT_ID": "2025-254AA", "EPOCH": "2025-12-02T03:24:02.847168", "MEAN_MOTION": 15.74265847, "ECCENTRICITY": 0.0001389, "INCLINATION": 53.1569, "RA_OF_ASC_NODE": 327.4786, "ARG_OF_PERICENTER": 98.8922, "MEAN_ANOMALY": 261.2255, "EPHEMERIS_TYPE": 0, "CLASSIFICATION_TYPE": "U", "NORAD_CAT_ID": 66372, "ELEMENT_SET_NO": 999, "REV_AT_EPOCH": 401, "BSTAR": 0.0015974, "MEAN_MOTION_DOT": 0.00240921, "MEAN_MOTION_DDOT": 0}, "tle": {"line1": "1 66372U 25254AA  25336.14169962  .00240921  00000+0  15974-2 0  9994", "line2": "2 66372  53.1569 327.4786 0001389  98.8922 261.2255 15.74265847  4018"}}, "geometry": {"type": "Point", "coordinates": [-61.38049838738674, -31.469516693968682]}}]}